{"type": "FeatureCollection", "features": [ {"type": "Feature", "properties": {"norad_id": 65077, "name": "CREW DRAGON 11", "group": "stations", "lat": 18.942383062315763, "lon": -179.06810040484714, "alt_km": 418.72916708745106, "timestamp": "2025-12-08T03:50:05.800877+00:00", "meta": {"OBJECT_NAME": "CREW DRAGON 11", "OBJECT_ID": "2025-166A", "EPOCH": "2025-12-07T04:30:36.916128", "MEAN_MOTION": 15.49384117, "ECCENTRICITY": 0.00034959, "INCLINATION": 51.6302, "RA_OF_ASC_NODE": 169.9669, "ARG_OF_PERICENTER": 214.2568, "MEAN_ANOMALY": 145.8196, "EPHEMERIS_TYPE": 0, "CLASSIFICATION_TYPE": "U", "NORAD_CAT_ID": 65077, "ELEMENT_SET_NO": 999, "REV_AT_EPOCH": 214, "BSTAR": 0.00024795554, "MEAN_MOTION_DOT": 0.00013419, "MEAN_MOTION_DDOT": 0}, "tle": {"line1": "1 65077U 25166A   25341.18792727  .00013419  00000+0  24796-3 0  9991", "line2": "2 65077  51.6302 169.9669 0003495 214.2568 145.8196 15.49384117  2143"}}, "geometry": {"type": "Point", "coordinates": [-179.06810040484714, 18.942383062315763]}}, {"type": "Feature", "properties": {"norad_id": 65304, "name": "DRAGON CRS-33", "group": "stations", "lat": 18.94238364711663, "lon": -179.0680998673434, "alt_km": 418.72916700238784, "timestamp": "2025-12-08T03:50:05.800889+00:00", "meta": {"OBJECT_NAME": "DRAGON CRS-33", "OBJECT_ID": "2025-186A", "EPOCH": "2025-12-07T04:30:36.916128", "MEAN_MOTION": 15.49384117, "ECCENTRICITY": 0.00034959, "INCLINATION": 51.6302, "RA_OF_ASC_NODE": 169.9669, "ARG_OF_PERICENTER": 214.2568, "MEAN_ANOMALY": 145.8196, "EPHEMERIS_TYPE": 0, "CLASSIFICATION_TYPE": "U", "NORAD_CAT_ID": 65304, "ELEMENT_SET_NO": 999, "REV_AT_EPOCH": 11, "BSTAR": 0.00024795554, "MEAN_MOTION_DOT": 0.00013419, "MEAN_MOTION_DDOT": 0}, "tle": {"line1": "1 65304U 25186A   25341.18792727  .00013419  00000+0  24796-3 0  9996", "line2": "2 65304  51.6302 169.9669 0003495 214.2568 145.8196 15.49384117   111"}}, "geometry": {"type": "Point", "coordinates": [-179.0680998673434, 18.94238364711663]}}, {"type": "Feature", "properties": {"norad_id": 65586, "name": "PROGRESS-MS 32", "group": "stations", "lat": 18.942384134452332, "lon": -179.0680994194221, "alt_km": 418.72916693150364, "timestamp": "2025-12-08T03:50:05.800899+00:00", "meta": {"OBJECT_NAME": "PROGRESS-MS 32", "OBJECT_ID": "2025-204A", "EPOCH": "2025-12-07T04:30:36.916128", "MEAN_MOTION": 15.49384117, "ECCENTRICITY": 0.00034959, "INCLINATION": 51.6302, "RA_OF_ASC_NODE": 169.9669, "ARG_OF_PERICENTER": 214.2568, "MEAN_ANOMALY": 145.8196, "EPHEMERIS_TYPE": 0, "CLASSIFICATION_TYPE": "U", "NORAD_CAT_ID": 65586, "ELEMENT_SET_NO": 999, "REV_AT_EPOCH": 27, "BSTAR": 0.00024795554, "MEAN_MOTION_DOT": 0.00013419, "MEAN_MOTION_DDOT": 0}, "tle": {"line1": "1 65586U 25204A   25341.18792727  .00013419  00000+0  24796-3 0  9999", "line2": "2 65586  51.6302 169.9669 0003495 214.2568 145.8196 15.49384117   270"}}, "geometry": {"type": "Point", "coordinates": [-179.0680994194221, 18.942384134452332]}}, {"type": "Feature", "properties": {"norad_id": 65616, "name": "CYGNUS NG-23", "group": "stations", "lat": 18.942384621787422, "lon": -179.06809897150137, "alt_km": 418.7291668606149, "timestamp": "2025-12-08T03:50:05.800909+00:00", "meta": {"OBJECT_NAME": "CYGNUS NG-23", "OBJECT_ID": "2025-208A", "EPOCH": "2025-12-07T04:30:36.916128", "MEAN_MOTION": 15.49384117, "ECCENTRICITY": 0.00034959, "INCLINATION": 51.6302, "RA_OF_ASC_NODE": 169.9669, "ARG_OF_PERICENTER": 214.2568, "MEAN_ANOMALY": 145.8196, "EPHEMERIS_TYPE": 0, "CLASSIFICATION_TYPE": "U", "NORAD_CAT_ID": 65616, "ELEMENT_SET_NO": 999, "REV_AT_EPOCH": 22, "BSTAR": 0.00024795554, "MEAN_MOTION_DOT": 0.00013419, "MEAN_MOTION_DDOT": 0}, "tle": {"line1": "1 65616U 25208A   25341.18792727  .00013419  00000+0  24796-3 0  9997", "line2": "2 65616  51.6302 169.9669 0003495 214.2568 145.8196 15.49384117   229"}}, "geometry": {"type": "Point", "coordinates": [-179.06809897150137, 18.942384621787422]}}, {"type": "Feature", "properties": {"norad_id": 65729, "name": "DRAGONFLY", "group": "stations", "lat": 6.695893902945312, "lon": 164.5180319069673, "alt_km": 360.79095876808515, "timestamp": "2025-12-08T03:50:05.800921+00:00", "meta": {"OBJECT_NAME": "DRAGONFLY", "OBJECT_ID": "1998-067XH", "EPOCH": "2025-12-06T18:11:12.021792", "MEAN_MOTION": 15.69539731, "ECCENTRICITY": 0.00064636, "INCLINATION": 51.6244, "RA_OF_ASC_NODE": 166.34, "ARG_OF_PERICENTER": 240.1975, "MEAN_ANOMALY": 119.838, "EPHEMERIS_TYPE": 0, "CLASSIFICATION_TYPE": "U", "NORAD_CAT_ID": 65729, "ELEMENT_SET_NO": 999, "REV_AT_EPOCH": 1222, "BSTAR": 0.0016006166, "MEAN_MOTION_DOT": 0.00197078, "MEAN_MOTION_DDOT": 0}, "tle": {"line1": "1 65729U 98067XH  25340.75777803  .00197078  00000+0  16006-2 0  9993", "line2": "2 65729  51.6244 166.3400 0006463 240.1975 119.8380 15.69539731 12226"}}, "geometry": {"type": "Point", "coordinates": [164.5180319069673, 6.695893902945312]}}, {"type": "Feature", "properties": {"norad_id": 65731, "name": "1998-067XK", "group": "stations", "lat": 38.14192867002135, "lon": -58.03348460214217, "alt_km": 369.0777364072437, "timestamp": "2025-12-08T03:50:05.800931+00:00", "meta": {"OBJECT_NAME": "1998-067XK", "OBJECT_ID": "1998-067XK", "EPOCH": "2025-12-07T05:49:41.884032", "MEAN_MOTION": 15.64416852, "ECCENTRICITY": 0.00055141, "INCLINATION": 51.6277, "RA_OF_ASC_NODE": 165.0923, "ARG_OF_PERICENTER": 212.3483, "MEAN_ANOMALY": 147.7174, "EPHEMERIS_TYPE": 0, "CLASSIFICATION_TYPE": "U", "NORAD_CAT_ID": 65731, "ELEMENT_SET_NO": 999, "REV_AT_EPOCH": 1228, "BSTAR": 0.0011654996, "MEAN_MOTION_DOT": 0.00115237, "MEAN_MOTION_DDOT": 0}, "tle": {"line1": "1 65731U 98067XK  25341.24284588  .00115237  00000+0  11655-2 0  9996", "line2": "2 65731  51.6277 165.0923 0005514 212.3483 147.7174 15.64416852 12282"}}, "geometry": {"type": "Point", "coordinates": [-58.03348460214217, 38.14192867002135]}}, {"type": "Feature", "properties": {"norad_id": 65732, "name": "RSP-03", "group": "stations", "lat": 40.35988198504663, "lon": -157.82592554784924, "alt_km": 365.58144044677647, "timestamp": "2025-12-08T03:50:05.800942+00:00", "meta": {"OBJECT_NAME": "RSP-03", "OBJECT_ID": "1998-067XL", "EPOCH": "2025-12-07T07:42:04.980672", "MEAN_MOTION": 15.66929092, "ECCENTRICITY": 0.000631, "INCLINATION": 51.6257, "RA_OF_ASC_NODE": 164.1062, "ARG_OF_PERICENTER": 215.9526, "MEAN_ANOMALY": 144.1047, "EPHEMERIS_TYPE": 0, "CLASSIFICATION_TYPE": "U", "NORAD_CAT_ID": 65732, "ELEMENT_SET_NO": 999, "REV_AT_EPOCH": 1231, "BSTAR": 0.0013579871, "MEAN_MOTION_DOT": 0.00149269, "MEAN_MOTION_DDOT": 0}, "tle": {"line1": "1 65732U 98067XL  25341.32089098  .00149269  00000+0  13580-2 0  9996", "line2": "2 65732  51.6257 164.1062 0006310 215.9526 144.1047 15.66929092 12318"}}, "geometry": {"type": "Point", "coordinates": [-157.82592554784924, 40.35988198504663]}}, {"type": "Feature", "properties": {"norad_id": 65733, "name": "GHS-01", "group": "stations", "lat": -41.968790736152755, "lon": 24.161862690603066, "alt_km": 351.39194382615824, "timestamp": "2025-12-08T03:50:05.800952+00:00", "meta": {"OBJECT_NAME": "GHS-01", "OBJECT_ID": "1998-067XM", "EPOCH": "2025-12-07T05:28:08.173632", "MEAN_MOTION": 15.72081173, "ECCENTRICITY": 0.00068995, "INCLINATION": 51.6272, "RA_OF_ASC_NODE": 163.4841, "ARG_OF_PERICENTER": 242.1163, "MEAN_ANOMALY": 117.9137, "EPHEMERIS_TYPE": 0, "CLASSIFICATION_TYPE": "U", "NORAD_CAT_ID": 65733, "ELEMENT_SET_NO": 999, "REV_AT_EPOCH": 1231, "BSTAR": 0.0017831396, "MEAN_MOTION_DOT": 0.00245776, "MEAN_MOTION_DDOT": 0}, "tle": {"line1": "1 65733U 98067XM  25341.22787238  .00245776  00000+0  17831-2 0  9990", "line2": "2 65733  51.6272 163.4841 0006899 242.1163 117.9137 15.72081173 12318"}}, "geometry": {"type": "Point", "coordinates": [24.161862690603066, -41.968790736152755]}}, {"type": "Feature", "properties": {"norad_id": 65941, "name": "YOTSUBA-KULOVER", "group": "stations", "lat": -7.867747433686349, "lon": 156.6935138554033, "alt_km": 394.3379114919935, "timestamp": "2025-12-08T03:50:05.800962+00:00", "meta": {"OBJECT_NAME": "YOTSUBA-KULOVER", "OBJECT_ID": "1998-067XN", "EPOCH": "2025-12-06T22:38:23.157312", "MEAN_MOTION": 15.58463042, "ECCENTRICITY": 0.00019742, "INCLINATION": 51.6276, "RA_OF_ASC_NODE": 169.0887, "ARG_OF_PERICENTER": 197.0362, "MEAN_ANOMALY": 163.0565, "EPHEMERIS_TYPE": 0, "CLASSIFICATION_TYPE": "U", "NORAD_CAT_ID": 65941, "ELEMENT_SET_NO": 999, "REV_AT_EPOCH": 895, "BSTAR": 0.0010714534, "MEAN_MOTION_DOT": 0.00083678, "MEAN_MOTION_DDOT": 0}, "tle": {"line1": "1 65941U 98067XN  25340.94332358  .00083678  00000+0  10715-2 0  9993", "line2": "2 65941  51.6276 169.0887 0001974 197.0362 163.0565 15.58463042  8958"}}, "geometry": {"type": "Point", "coordinates": [156.6935138554033, -7.867747433686349]}}, {"type": "Feature", "properties": {"norad_id": 65942, "name": "BOTAN", "group": "stations", "lat": -51.4162946147322, "lon": 65.71785486895776, "alt_km": 386.4240981202738, "timestamp": "2025-12-08T03:50:05.800972+00:00", "meta": {"OBJECT_NAME": "BOTAN", "OBJECT_ID": "1998-067XP", "EPOCH": "2025-12-06T18:26:46.199328", "MEAN_MOTION": 15.61316825, "ECCENTRICITY": 0.00039822, "INCLINATION": 51.627, "RA_OF_ASC_NODE": 169.4226, "ARG_OF_PERICENTER": 191.5132, "MEAN_ANOMALY": 168.5771, "EPHEMERIS_TYPE": 0, "CLASSIFICATION_TYPE": "U", "NORAD_CAT_ID": 65942, "ELEMENT_SET_NO": 999, "REV_AT_EPOCH": 893, "BSTAR": 0.001480583, "MEAN_MOTION_DOT": 0.00129965, "MEAN_MOTION_DDOT": 0}, "tle": {"line1": "1 65942U 98067XP  25340.76859027  .00129965  00000+0  14806-2 0  9996", "line2": "2 65942  51.6270 169.4226 0003982 191.5132 168.5771 15.61316825  8936"}}, "geometry": {"type": "Point", "coordinates": [65.71785486895776, -51.4162946147322]}}]}